FENGYUN 3C              
1 39260U 13052A   23086.34799822 -.00000049  00000+0 -41887-5 0  9991
2 39260  98.4340 104.8159 0011444 173.5851 186.5465 14.16011168491954
CASSIOPE                
1 39265U 13055A   23089.13911067  .00025190  00000+0  62778-3 0  9998
2 39265  80.9618 322.5385 0583044 186.2810 173.0856 14.48495373493506
ZACUBE-1 (TSHEPISOSAT)  
1 39417U 13066B   23089.37779639  .00006402  00000+0  74929-3 0  9998
2 39417  97.6772  53.8843 0055268 184.6697 175.4010 14.84279843505505
CINEMA-3 (KHUSAT-2)     
1 39426U 13066L   23089.54746329  .00004693  00000+0  70965-3 0  9993
2 39426  97.8238  22.5792 0102673  39.8108 321.0574 14.71152100501581
TRITON-1                
1 39427U 13066M   23089.72969878  .00006427  00000+0  97211-3 0  9990
2 39427  97.8325  18.5927 0110823  69.3033 292.0012 14.70427202501014
DELFI-N3XT              
1 39428U 13066N   23089.53933336  .00010275  00000+0  14956-2 0  9990
2 39428  97.8310  17.2236 0114408  81.9714 279.4456 14.71632306500741
GOMX-1                  
1 39430U 13066Q   23089.87205064  .00003384  00000+0  59697-3 0  9995
2 39430  97.7879 345.5635 0145231 220.7424 138.2800 14.61432315498100
BRITE-PL1 (LEM)         
1 39431U 13066R   23089.75807714  .00001399  00000+0  30211-3 0  9998
2 39431  97.6811 282.6932 0201400  61.2701 300.8568 14.47833757493982
ICUBE-1                 
1 39432U 13066S   23089.45006421  .00010671  00000+0  98274-3 0  9998
2 39432  97.4824  83.9162 0030512  30.6268 329.6726 14.94533509508586
HUMSAT-D                
1 39433U 13066T   23088.96981251  .00014322  00000+0  12101-2 0  9998
2 39433  97.4549  91.3551 0027615   4.1384 356.0062 14.97888501509071
VELOX-PII               
1 39438U 13066Y   23088.84999651  .00004926  00000+0  62706-3 0  9999
2 39438  97.7331  45.0145 0065665 246.4432 112.9874 14.80486860503208
FIRST-MOVE              
1 39439U 13066Z   23088.85840139  .00013200  00000+0  13931-2 0  9997
2 39439  97.6732  56.8001 0057924 177.4795 182.6726 14.88149359504420
CUBEBUG-2 (LO-74)       
1 39440U 13066AA  23089.08867266  .00006789  00000+0  88713-3 0  9990
2 39440  97.7644  40.4940 0074454 284.9976  74.3003 14.78834601503668
NEE-02 KRYSAOR          
1 39441U 13066AB  23088.82800313  .00004870  00000+0  66439-3 0  9992
2 39441  97.7752  37.1915 0077358 301.9850  57.3858 14.77026525502138
FUNCUBE-1 (AO-73)       
1 39444U 13066AE  23089.15735059  .00006940  00000+0  78303-3 0  9999
2 39444  97.6636  56.1578 0054097 171.2778 188.9391 14.85794657504490
HINCUBE                 
1 39445U 13066AF  23089.11484338  .00007533  00000+0  85447-3 0  9993
2 39445  97.6651  55.8989 0054146 173.9628 186.2252 14.85547727504017
UWE-3                   
1 39446U 13066AG  23089.42251903  .00006230  00000+0  77396-3 0  9995
2 39446  97.7262  47.0365 0064605 235.6783 123.8305 14.81439450503358
AIST-1 (RS-41)          
1 39492U 13078C   23089.84110498  .00002737  00000+0  28518-3 0  9998
2 39492  82.4195 322.4614 0017768 234.9964 124.9546 14.89368934502391
SPROUT                  
1 39770U 14029E   23089.34381275  .00031519  00000+0  26217-2 0  9995
2 39770  97.9547 214.5649 0011007 215.8408 144.2031 14.98576835480336
UNISAT-6                
1 40012U 14033C   23089.24602754  .00004452  00000+0  63381-3 0  9998
2 40012  97.6686 267.2293 0055068 313.3286  46.3340 14.76265965472129
BUGSAT-1 (TITA)         
1 40014U 14033E   23089.26693313  .00006999  00000+0  58090-3 0  9992
2 40014  98.1461 104.7172 0030285 165.7957 194.4119 14.98761995478917
DUCHIFAT-1              
1 40021U 14033M   23089.36598043  .00013523  00000+0  11911-2 0  9996
2 40021  98.0499  50.9079 0011818 164.1092 196.0501 14.96544011477397
NANOSATC-BR1            
1 40024U 14033Q   23088.82860807  .00011132  00000+0  10275-2 0  9995
2 40024  98.0207  42.0713 0010782 173.7022 186.4335 14.94765370476558
QB50P1                  
1 40025U 14033R   23088.80940830  .00008792  00000+0  85010-3 0  9997
2 40025  97.9896  34.2393 0010858 186.6867 173.4209 14.92994827476298
DTUSAT-2                
1 40030U 14033W   23089.31598104  .00008712  00000+0  85853-3 0  9990
2 40030  97.9613  28.9225 0010635 181.6298 178.4887 14.92236537476745
QB50P2                  
1 40032U 14033Y   23088.82250544  .00007939  00000+0  78326-3 0  9997
2 40032  97.9609  28.4411 0010460 185.8513 174.2585 14.92225651476133
POLYITAN-1              
1 40042U 14033AJ  23088.91680066  .00011175  00000+0  10623-2 0  9996
2 40042  98.0006  36.0263 0012969 180.1799 179.9417 14.93579446476712
TIGRISAT                
1 40043U 14033AK  23089.22428704  .00003482  00000+0  49851-3 0  9999
2 40043  97.6617 268.2863 0057074 310.7405  48.8858 14.76092294472061
AISAT                   
1 40054U 14034B   23089.50629120  .00009708  00000+0  12169-2 0  9996
2 40054  98.3697 278.0397 0012372 118.5847 241.6611 14.82378582471801
CANX-4                  
1 40055U 14034C   23089.40479146  .00003109  00000+0  45622-3 0  9997
2 40055  98.3847 261.3627 0014316 164.3718 195.7936 14.76249045470921
CANX-5                  
1 40056U 14034D   23089.20841016  .00003078  00000+0  45168-3 0  9995
2 40056  98.3849 261.1428 0014305 165.2061 194.9569 14.76249675470898
VELOX-I                 
1 40057U 14034E   23089.79379920  .00007247  00000+0  93670-3 0  9993
2 40057  98.3730 279.3139 0010661 130.9578 229.2529 14.81205336471825
METEOR-M 2              
1 40069U 14037A   23089.74772030  .00000122  00000+0  75649-4 0  9995
2 40069  98.4259  99.3575 0005166 199.0724 161.0252 14.20760685452519
DX1                     
1 40071U 14037C   23089.78146869  .00002763  00000+0  34949-3 0  9997
2 40071  98.3706 337.2111 0009334 113.4843 246.7342 14.82691468471759
UKUBE-1                 
1 40074U 14037F   23089.70624992  .00007826  00000+0  86888-3 0  9994
2 40074  98.3506 350.0957 0005134  71.3540 288.8210 14.87506006472582
FIREBIRD 3              
1 40377U 15003B   23089.38292562  .00116702  00000+0  17258-2 0  9990
2 40377  99.0756  26.2294 0065450 123.9985 236.7504 15.52398222452345
FIREBIRD 4              
1 40378U 15003C   23089.38904295  .00117177  00000+0  17242-2 0  9994
2 40378  99.0782  26.5358 0065682 123.2090 237.5478 15.52513164452350
GRIFEX                  
1 40379U 15003D   23089.83953996  .00045211  00000+0  11614-2 0  9993
2 40379  99.0785   8.1439 0091943 178.9024 181.2433 15.34865026451344
CP10 (EXOCUBE)          
1 40380U 15003E   23089.47248955  .00030207  00000+0  93045-3 0  9995
2 40380  99.0866 358.5359 0104191 211.5611 147.9348 15.28337471450697
DEORBITSAIL             
1 40719U 15032E   23088.90789834  .00007732  00000+0  10094-2 0  9995
2 40719  97.7463 322.4459 0015580 151.7066 208.4996 14.80686089416080
XW-2A                   
1 40903U 15049E   23089.74947007  .00365518  52836-4  10947-2 0  9994
2 40903  97.1216 157.2465 0005276 163.6707 294.1200 15.92297635424001
XW-2C                   
1 40906U 15049H   23089.79224713  .00017376  00000+0  71120-3 0  9992
2 40906  97.4975  96.7740 0014638  79.3845  45.4768 15.24284207416441
XW-2D                   
1 40907U 15049J   23089.76265777  .00020426  00000+0  79867-3 0  9991
2 40907  97.4963  97.0893 0013641  75.1067  12.3939 15.25795359416512
LILACSAT-2              
1 40908U 15049K   23089.80062678  .00009118  00000+0  44202-3 0  9992
2 40908  97.5274  93.1343 0016388 101.6257  16.0328 15.18630021415892
XW-2E                   
1 40909U 15049L   23089.76649446  .00036482  00000+0  11226-2 0  9995
2 40909  97.4607 102.6602 0011653  53.8852   0.4098 15.33502435417106
XW-2F                   
1 40910U 15049M   23089.74392024  .00036180  00000+0  11342-2 0  9996
2 40910  97.4688 101.8534 0012417  54.7202  63.5836 15.32903473416857
XW-2B                   
1 40911U 15049N   23089.75279912  .00020223  00000+0  79526-3 0  9998
2 40911  97.4939  97.5614 0013582  76.7370  37.2540 15.25607812416390
KAITUO 1B               
1 40912U 15049P   23089.71868811  .00044065  00000+0  11833-2 0  9993
2 40912  97.4261 106.2717 0010126  20.7342  92.1476 15.37750908417522
LAPAN-A2                
1 40931U 15052B   23089.90713231  .00001634  00000+0  13668-3 0  9998
2 40931   5.9985 285.3459 0013481 268.0751  91.8016 14.77129644405769
LQSAT                   
1 40958U 15057A   23089.83302325  .00001370  00000+0  21619-3 0  9994
2 40958  97.7127 127.6573 0019262 115.3048 245.0137 14.73769160402152
ATHENOXAT 1             
1 41168U 15077C   23089.35566637  .00100522  00000+0  23057-2 0  9991
2 41168  14.9637 112.1309 0004561 305.7094 169.6805 15.40872997404075
GALASSIA                
1 41170U 15077E   23088.29432002  .00051424  00000+0  15494-2 0  9996
2 41170  14.9868 119.0510 0007028 327.6818  32.3075 15.32420742403759
VELOX-II                
1 41171U 15077F   23088.45264111  .00031821  00000+0  12433-2 0  9998
2 41171  14.9893 209.9034 0007217 136.2239 223.8656 15.23786693403065
CHUBUSAT-2              
1 41338U 16012B   23089.08201650  .00007438  00000+0  52855-3 0  9992
2 41338  31.0045   3.3049 0011957 109.7053 250.4874 15.03299550390462
CHUBUSAT-3              
1 41339U 16012C   23089.15837399  .00006365  00000+0  45240-3 0  9994
2 41339  31.0130 359.8105 0011869 118.4567 357.5710 15.03221004390477
HORYU-4                 
1 41340U 16012D   23089.05753938  .00012583  00000+0  82066-3 0  9997
2 41340  31.0053 331.8453 0011048 170.5047 189.5800 15.06641328390774
OUFTI-1                 
1 41458U 16025C   23089.11121748  .00041617  00000+0  12745-2 0  9992
2 41458  98.1911 284.8176 0110826   7.0758 353.2011 15.27779696380953
E-ST@R-II               
1 41459U 16025D   23089.77213375  .00032184  00000+0  10499-2 0  9996
2 41459  98.1928 283.3859 0116658  11.5218 115.8692 15.25298996380925
AAUSAT 4                
1 41460U 16025E   23089.84474461  .00085890  00000+0  17898-2 0  9993
2 41460  98.1724 293.6193 0079992 332.5765  38.9464 15.41838128381645
